start=new Date('2021-08-25T00:00:00.000Z').valueOf();
sats=[{"EPHEMERIS_TYPE":"0","MEAN_ELEMENT_THEORY":"SGP4","REF_FRAME":"TEME","TLE_LINE1":"1 48428U 21040A   21236.91667824  .00022451  00000-0  15219-2 0  9994","ARG_OF_PERICENTER":"100.5386","MEAN_ANOMALY":"278.4020","CENTER_NAME":"EARTH","LAUNCH_DATE":"2021-05-09","TIME_SYSTEM":"UTC","INCLINATION":"53.0536","SEMIMAJOR_AXIS":"6925.393","GP_ID":"183388321","CLASSIFICATION_TYPE":"U","MEAN_MOTION_DOT":"0.00022451","NORAD_CAT_ID":"48428","FILE":"3102580","OBJECT_ID":"2021-040A","ECCENTRICITY":"0.00018160","OBJECT_TYPE":"PAYLOAD","RCS_SIZE":"LARGE","REV_AT_EPOCH":"364","SITE":"AFETR","BSTAR":"0.00152190000000","MEAN_MOTION":"15.06385531","DECAY_DATE":null,"COUNTRY_CODE":"US","OBJECT_NAME":"STARLINK-2461","MEAN_MOTION_DDOT":"0.0000000000000","RA_OF_ASC_NODE":"68.6394","EPOCH":"2021-08-24T22:00:00.999936","PERIOD":"95.593","ELEMENT_SET_NO":"999","TLE_LINE2":"2 48428  53.0536  68.6394 0001816 100.5386 278.4020 15.06385531  3648","APOAPSIS":"548.516","PERIAPSIS":"546.000"},{"EPOCH":"2021-08-24T22:00:00.999936","PERIOD":"91.543","ELEMENT_SET_NO":"999","RA_OF_ASC_NODE":"48.0498","PERIAPSIS":"348.591","APOAPSIS":"351.885","TLE_LINE2":"2 48429  53.0475  48.0498 0002448  19.3861 195.0393 15.73032391 18252","COUNTRY_CODE":"US","OBJECT_NAME":"STARLINK-2749","MEAN_MOTION_DDOT":"0.0000000000000","OBJECT_ID":"2021-040B","FILE":"3102469","MEAN_MOTION_DOT":"0.00053178","NORAD_CAT_ID":"48429","CLASSIFICATION_TYPE":"U","SEMIMAJOR_AXIS":"6728.373","GP_ID":"183362932","INCLINATION":"53.0475","TIME_SYSTEM":"UTC","DECAY_DATE":null,"MEAN_MOTION":"15.73032391","BSTAR":"0.00038355000000","SITE":"AFETR","RCS_SIZE":"LARGE","REV_AT_EPOCH":"1825","ECCENTRICITY":"0.00024480","OBJECT_TYPE":"PAYLOAD","MEAN_ELEMENT_THEORY":"SGP4","EPHEMERIS_TYPE":"0","LAUNCH_DATE":"2021-05-09","CENTER_NAME":"EARTH","MEAN_ANOMALY":"195.0393","ARG_OF_PERICENTER":"19.3861","TLE_LINE1":"1 48429U 21040B   21236.91667824  .00053178  00000-0  38355-3 0  9992","REF_FRAME":"TEME"},{"MEAN_MOTION_DDOT":"0.0000000000000","OBJECT_NAME":"STARLINK-2729","COUNTRY_CODE":"US","APOAPSIS":"351.298","TLE_LINE2":"2 48430  53.0486  48.0488 0002251  17.4550 197.5489 15.73191651  3747","PERIAPSIS":"348.270","EPOCH":"2021-08-24T22:00:00.999936","PERIOD":"91.534","ELEMENT_SET_NO":"999","RA_OF_ASC_NODE":"48.0488","ARG_OF_PERICENTER":"17.4550","TLE_LINE1":"1 48430U 21040C   21236.91667824  .00084812  00000-0  60270-3 0  9994","REF_FRAME":"TEME","LAUNCH_DATE":"2021-05-09","CENTER_NAME":"EARTH","MEAN_ANOMALY":"197.5489","MEAN_ELEMENT_THEORY":"SGP4","EPHEMERIS_TYPE":"0","BSTAR":"0.00060270000000","SITE":"AFETR","RCS_SIZE":"LARGE","REV_AT_EPOCH":"374","ECCENTRICITY":"0.00022510","OBJECT_TYPE":"PAYLOAD","DECAY_DATE":null,"MEAN_MOTION":"15.73191651","CLASSIFICATION_TYPE":"U","SEMIMAJOR_AXIS":"6727.919","GP_ID":"183388416","TIME_SYSTEM":"UTC","INCLINATION":"53.0486","OBJECT_ID":"2021-040C","FILE":"3102580","MEAN_MOTION_DOT":"0.00084812","NORAD_CAT_ID":"48430"},{"OBJECT_NAME":"STARLINK-2700","MEAN_MOTION_DDOT":"0.0000000000000","COUNTRY_CODE":"US","TLE_LINE2":"2 48431  53.0485  48.0469 0002512  23.7802 191.8692 15.73166591  3744","APOAPSIS":"351.545","PERIAPSIS":"348.165","RA_OF_ASC_NODE":"48.0469","ELEMENT_SET_NO":"999","PERIOD":"91.535","EPOCH":"2021-08-24T22:00:00.999936","REF_FRAME":"TEME","TLE_LINE1":"1 48431U 21040D   21236.91667824  .00081549  00000-0  58051-3 0  9993","ARG_OF_PERICENTER":"23.7802","MEAN_ANOMALY":"191.8692","CENTER_NAME":"EARTH","LAUNCH_DATE":"2021-05-09","EPHEMERIS_TYPE":"0","MEAN_ELEMENT_THEORY":"SGP4","OBJECT_TYPE":"PAYLOAD","ECCENTRICITY":"0.00025120","RCS_SIZE":"LARGE","REV_AT_EPOCH":"374","SITE":"AFETR","BSTAR":"0.00058051000000","MEAN_MOTION":"15.73166591","DECAY_DATE":null,"INCLINATION":"53.0485","TIME_SYSTEM":"UTC","SEMIMAJOR_AXIS":"6727.990","GP_ID":"183387883","CLASSIFICATION_TYPE":"U","MEAN_MOTION_DOT":"0.00081549","NORAD_CAT_ID":"48431","FILE":"3102580","OBJECT_ID":"2021-040D"},{"MEAN_MOTION_DDOT":"0.0000000000000","OBJECT_NAME":"STARLINK-2680","COUNTRY_CODE":"US","TLE_LINE2":"2 48432  53.0488  48.0469 0002475  21.5869 194.7667 15.73162003  3743","APOAPSIS":"351.534","PERIAPSIS":"348.203","ELEMENT_SET_NO":"999","PERIOD":"91.535","EPOCH":"2021-08-24T22:00:00.999936","RA_OF_ASC_NODE":"48.0469","TLE_LINE1":"1 48432U 21040E   21236.91667824  .00081074  00000-0  57730-3 0  9990","ARG_OF_PERICENTER":"21.5869","REF_FRAME":"TEME","CENTER_NAME":"EARTH","LAUNCH_DATE":"2021-05-09","MEAN_ANOMALY":"194.7667","MEAN_ELEMENT_THEORY":"SGP4","EPHEMERIS_TYPE":"0","SITE":"AFETR","BSTAR":"0.00057730000000","OBJECT_TYPE":"PAYLOAD","ECCENTRICITY":"0.00024750","RCS_SIZE":"LARGE","REV_AT_EPOCH":"374","MEAN_MOTION":"15.73162003","DECAY_DATE":null,"SEMIMAJOR_AXIS":"6728.004","GP_ID":"183387978","CLASSIFICATION_TYPE":"U","TIME_SYSTEM":"UTC","INCLINATION":"53.0488","FILE":"3102580","OBJECT_ID":"2021-040E","MEAN_MOTION_DOT":"0.00081074","NORAD_CAT_ID":"48432"},{"RCS_SIZE":"LARGE","REV_AT_EPOCH":"380","OBJECT_TYPE":"PAYLOAD","ECCENTRICITY":"0.00022440","BSTAR":"-0.00471500000000","SITE":"AFETR","DECAY_DATE":null,"MEAN_MOTION":"15.73414404","INCLINATION":"53.0497","TIME_SYSTEM":"UTC","CLASSIFICATION_TYPE":"U","SEMIMAJOR_AXIS":"6727.284","GP_ID":"183388511","MEAN_MOTION_DOT":"-0.00621626","NORAD_CAT_ID":"48433","OBJECT_ID":"2021-040F","FILE":"3102580","REF_FRAME":"TEME","ARG_OF_PERICENTER":"24.5898","TLE_LINE1":"1 48433U 21040F   21236.91667824 -.00621626  00000-0 -47150-2 0  9990","MEAN_ANOMALY":"192.3529","LAUNCH_DATE":"2021-05-09","CENTER_NAME":"EARTH","EPHEMERIS_TYPE":"0","MEAN_ELEMENT_THEORY":"SGP4","APOAPSIS":"350.659","TLE_LINE2":"2 48433  53.0497  48.0452 0002244  24.5898 192.3529 15.73414404  3808","PERIAPSIS":"347.639","RA_OF_ASC_NODE":"48.0452","ELEMENT_SET_NO":"999","PERIOD":"91.521","EPOCH":"2021-08-24T22:00:00.999936","OBJECT_NAME":"STARLINK-2699","MEAN_MOTION_DDOT":"0.0000000000000","COUNTRY_CODE":"US"},{"TLE_LINE2":"2 48434  53.0488  48.0448 0002455  19.2667 198.3763 15.73149375  3744","APOAPSIS":"351.556","PERIAPSIS":"348.253","PERIOD":"91.536","EPOCH":"2021-08-24T22:00:00.999936","ELEMENT_SET_NO":"999","RA_OF_ASC_NODE":"48.0448","OBJECT_NAME":"STARLINK-2692","MEAN_MOTION_DDOT":"0.0000000000000","COUNTRY_CODE":"US","SITE":"AFETR","BSTAR":"0.00056357000000","ECCENTRICITY":"0.00024550","OBJECT_TYPE":"PAYLOAD","REV_AT_EPOCH":"374","RCS_SIZE":"LARGE","MEAN_MOTION":"15.73149375","DECAY_DATE":null,"SEMIMAJOR_AXIS":"6728.040","GP_ID":"183388073","CLASSIFICATION_TYPE":"U","INCLINATION":"53.0488","TIME_SYSTEM":"UTC","FILE":"3102580","OBJECT_ID":"2021-040G","MEAN_MOTION_DOT":"0.00079069","NORAD_CAT_ID":"48434","TLE_LINE1":"1 48434U 21040G   21236.91667824  .00079069  00000-0  56357-3 0  9997","ARG_OF_PERICENTER":"19.2667","REF_FRAME":"TEME","LAUNCH_DATE":"2021-05-09","CENTER_NAME":"EARTH","MEAN_ANOMALY":"198.3763","MEAN_ELEMENT_THEORY":"SGP4","EPHEMERIS_TYPE":"0"},{"MEAN_MOTION_DDOT":"0.0000000000000","OBJECT_NAME":"STARLINK-2633","COUNTRY_CODE":"US","TLE_LINE2":"2 48435  53.0456  49.0841 0001334  47.8530 339.2635 15.46370482  3748","APOAPSIS":"428.264","PERIAPSIS":"426.448","EPOCH":"2021-08-24T22:00:00.999936","PERIOD":"93.121","ELEMENT_SET_NO":"999","RA_OF_ASC_NODE":"49.0841","TLE_LINE1":"1 48435U 21040H   21236.91667824 -.01078862  00000-0 -23731-1 0  9999","ARG_OF_PERICENTER":"47.8530","REF_FRAME":"TEME","CENTER_NAME":"EARTH","LAUNCH_DATE":"2021-05-09","MEAN_ANOMALY":"339.2635","MEAN_ELEMENT_THEORY":"SGP4","EPHEMERIS_TYPE":"0","SITE":"AFETR","BSTAR":"-0.02373100000000","ECCENTRICITY":"0.00013340","OBJECT_TYPE":"PAYLOAD","RCS_SIZE":"LARGE","REV_AT_EPOCH":"374","MEAN_MOTION":"15.46370482","DECAY_DATE":null,"GP_ID":"183388227","SEMIMAJOR_AXIS":"6805.491","CLASSIFICATION_TYPE":"U","INCLINATION":"53.0456","TIME_SYSTEM":"UTC","FILE":"3102580","OBJECT_ID":"2021-040H","MEAN_MOTION_DOT":"-0.01078862","NORAD_CAT_ID":"48435"},{"LAUNCH_DATE":"2021-05-09","CENTER_NAME":"EARTH","MEAN_ANOMALY":"97.4385","TLE_LINE1":"1 48436U 21040J   21236.91667824  .00029951  00000-0  20224-2 0  9997","ARG_OF_PERICENTER":"88.9744","REF_FRAME":"TEME","MEAN_ELEMENT_THEORY":"SGP4","EPHEMERIS_TYPE":"0","MEAN_MOTION":"15.06376215","DECAY_DATE":null,"SITE":"AFETR","BSTAR":"0.00202240000000","OBJECT_TYPE":"PAYLOAD","ECCENTRICITY":"0.00017040","REV_AT_EPOCH":"363","RCS_SIZE":"LARGE","FILE":"3102580","OBJECT_ID":"2021-040J","MEAN_MOTION_DOT":"0.00029951","NORAD_CAT_ID":"48436","GP_ID":"183388322","SEMIMAJOR_AXIS":"6925.421","CLASSIFICATION_TYPE":"U","INCLINATION":"53.0533","TIME_SYSTEM":"UTC","MEAN_MOTION_DDOT":"0.0000000000000","OBJECT_NAME":"STARLINK-2639","COUNTRY_CODE":"US","PERIAPSIS":"546.106","TLE_LINE2":"2 48436  53.0533  63.6490 0001704  88.9744  97.4385 15.06376215  3630","APOAPSIS":"548.467","ELEMENT_SET_NO":"999","PERIOD":"95.594","EPOCH":"2021-08-24T22:00:00.999936","RA_OF_ASC_NODE":"63.6490"},{"MEAN_ELEMENT_THEORY":"SGP4","EPHEMERIS_TYPE":"0","TLE_LINE1":"1 48437U 21040K   21236.91667824  .00016667  00000-0  11860-2 0  9994","ARG_OF_PERICENTER":"102.6744","REF_FRAME":"TEME","LAUNCH_DATE":"2021-05-09","CENTER_NAME":"EARTH","MEAN_ANOMALY":"353.7934","GP_ID":"183388168","SEMIMAJOR_AXIS":"6930.377","CLASSIFICATION_TYPE":"U","TIME_SYSTEM":"UTC","INCLINATION":"53.0537","FILE":"3102580","OBJECT_ID":"2021-040K","MEAN_MOTION_DOT":"0.00016667","NORAD_CAT_ID":"48437","SITE":"AFETR","BSTAR":"0.00118600000000","ECCENTRICITY":"0.00022260","OBJECT_TYPE":"PAYLOAD","RCS_SIZE":"LARGE","REV_AT_EPOCH":"363","MEAN_MOTION":"15.04760906","DECAY_DATE":null,"COUNTRY_CODE":"US","MEAN_MOTION_DDOT":"0.0000000000000","OBJECT_NAME":"STARLINK-2642","PERIOD":"95.696","EPOCH":"2021-08-24T22:00:00.999936","ELEMENT_SET_NO":"999","RA_OF_ASC_NODE":"72.8768","TLE_LINE2":"2 48437  53.0537  72.8768 0002226 102.6744 353.7934 15.04760906  3639","APOAPSIS":"553.784","PERIAPSIS":"550.699"}];
